DMSP 5D-3 F16 (USA 172) 
1 28054U 03048A   26016.58453428  .00000073  00000+0  61871-4 0  9994
2 28054  99.0026  39.3125 0006767 209.6269 262.2922 14.14438238148051
METEOSAT-9 (MSG-2)      
1 28912U 05049B   26016.16651491  .00000135  00000+0  00000+0 0  9995
2 28912   8.9973  55.6514 0031264 182.9247 342.7564  1.00267147  5470
DMSP 5D-3 F17 (USA 191) 
1 29522U 06050A   26016.56223226  .00000113  00000+0  80953-4 0  9997
2 29522  98.7395  26.2270 0010926 126.2134 234.0051 14.14936487990975
FENGYUN 3A              
1 32958U 08026A   26016.57614496  .00000044  00000+0  41574-4 0  9992
2 32958  98.6736 320.3769 0008229 198.3391 161.7489 14.19526879913891
GOES 14                 
1 35491U 09033A   26016.53868750  .00000104  00000+0  00000+0 0  9997
2 35491   1.2932  85.0150 0000964 256.5019 196.9367  1.00103174  5077
DMSP 5D-3 F18 (USA 210) 
1 35951U 09057A   26016.59175174  .00000227  00000+0  14089-3 0  9993
2 35951  98.8876 357.8264 0010601 326.9012  33.1497 14.14795434838151
EWS-G2 (GOES 15)        
1 36411U 10008A   26016.59754738  .00000054  00000+0  00000+0 0  9994
2 36411   0.8973  85.9438 0005084 190.6468 115.9438  1.00273916 58117
COMS 1                  
1 36744U 10032A   26016.61080747 -.00000331  00000+0  00000+0 0  9994
2 36744   4.4222  77.5685 0000810 236.7502 149.7904  1.00273069 49579
FENGYUN 3B              
1 37214U 10059A   26016.63216855  .00000439  00000+0  25088-3 0  9994
2 37214  98.9869  61.8466 0021131 255.7384 276.5505 14.14802221785994
SUOMI NPP               
1 37849U 11061A   26016.58419598  .00000058  00000+0  48257-4 0  9996
2 37849  98.7812 318.6192 0002422  60.8544 299.2874 14.19525580736934
METEOSAT-10 (MSG-3)     
1 38552U 12035B   26016.30010465  .00000007  00000+0  00000+0 0  9993
2 38552   4.3090  61.6286 0001850 284.1484 238.0359  1.00271175 49338
METOP-B                 
1 38771U 12049A   26016.56671284  .00000095  00000+0  63334-4 0  9992
2 38771  98.6748  70.9267 0003245  73.6608 286.4926 14.21422866691723
INSAT-3D                
1 39216U 13038B   26016.61098080 -.00000323  00000+0  00000+0 0  9990
2 39216   1.5342  84.5826 0001680 166.9543 213.9581  1.00269108 45566
FENGYUN 3C              
1 39260U 13052A   26016.58813086  .00000058  00000+0  50281-4 0  9997
2 39260  98.4805 357.5733 0015806  99.0145 261.2820 14.15708371637113
METEOR-M 2              
1 40069U 14037A   26016.59308837 -.00000303  00000+0 -11948-3 0  9995
2 40069  98.4937 357.8487 0006753 111.3692 248.8207 14.21400836597783
HIMAWARI-8              
1 40267U 14060A   26016.61323414 -.00000258  00000+0  00000+0 0  9993
2 40267   0.0101 112.7564 0000899 196.6280 168.0581  1.00270901 41247
FENGYUN 2G              
1 40367U 14090A   26016.60517410 -.00000290  00000+0  00000+0 0  9993
2 40367   5.2549  74.6759 0001463 186.7562 172.1397  1.00272874 40470
METEOSAT-11 (MSG-4)     
1 40732U 15034A   26016.58723399  .00000079  00000+0  00000+0 0  9994
2 40732   2.8232  71.8891 0000396 160.4669 104.5174  1.00278405  5698
ELEKTRO-L 2             
1 41105U 15074A   26016.36854633 -.00000106  00000+0  00000+0 0  9997
2 41105   6.3120  72.4111 0003592 220.6508 300.9030  1.00271335 36986
INSAT-3DR               
1 41752U 16054A   26016.60006074 -.00000060  00000+0  00000+0 0  9998
2 41752   0.0939  87.8367 0013894 187.3806 130.8376  1.00271828 34294
HIMAWARI-9              
1 41836U 16064A   26016.61323414 -.00000257  00000+0  00000+0 0  9991
2 41836   0.0498 230.9454 0000764 119.8272 126.7739  1.00272417 33699
GOES 16                 
1 41866U 16071A   26016.54660676 -.00000073  00000+0  00000+0 0  9994
2 41866   0.1085  97.2287 0002839 184.3074 286.5179  1.00271832 33586
FENGYUN 4A              
1 41882U 16077A   26016.60994079 -.00000341  00000+0  00000+0 0  9990
2 41882   1.9371  82.0444 0005049 133.1665 244.2037  1.00269496 33411
CYGFM05                 
1 41884U 16078A   26016.55557275  .00016107  00000+0  28715-3 0  9993
2 41884  34.9570 179.4447 0007835 146.9730 213.1483 15.49142437505163
CYGFM04                 
1 41885U 16078B   26016.57780002  .00019091  00000+0  30623-3 0  9998
2 41885  34.9327 153.0311 0007033 176.9507 183.1259 15.52085492505356
CYGFM02                 
1 41886U 16078C   26016.54308182  .00020977  00000+0  31826-3 0  9992
2 41886  34.9416 151.1133 0008557 176.9503 183.1273 15.53594601505483
CYGFM01                 
1 41887U 16078D   26016.53407415  .00016065  00000+0  28016-3 0  9991
2 41887  34.9398 181.6816 0007478 136.7718 223.3592 15.49767219505104
CYGFM08                 
1 41888U 16078E   26016.56153652  .00018112  00000+0  30110-3 0  9999
2 41888  34.9435 164.0684 0009063 164.7751 195.3245 15.51079203505346
CYGFM07                 
1 41890U 16078G   26016.55019913  .00019078  00000+0  31025-3 0  9990
2 41890  34.9455 152.9208 0007462 183.5524 176.5147 15.51702321505365
CYGFM03                 
1 41891U 16078H   26016.58214953  .00018724  00000+0  30581-3 0  9998
2 41891  34.9408 154.6537 0006905 167.9153 192.1736 15.51588673505341
FENGYUN 3D              
1 43010U 17072A   26016.62453405 -.00000112  00000+0 -31355-4 0  9995
2 43010  98.9932 348.4654 0002369 105.3910 254.7528 14.19694900423480
NOAA 20 (JPSS-1)        
1 43013U 17073A   26016.52825843  .00000039  00000+0  39346-4 0  9991
2 43013  98.7637 317.4515 0001446  37.2648 322.8628 14.19536276422951
GOES 17                 
1 43226U 18022A   26016.55194306 -.00000165  00000+0  00000+0 0  9999
2 43226   0.5466  88.5754 0002837 203.9335 292.6656  1.00271130 28902
FENGYUN 2H              
1 43491U 18050A   26016.60110074 -.00000112  00000+0  00000+0 0  9992
2 43491   2.6400  80.9461 0002202 176.3520 154.2650  1.00268841 27915
METOP-C                 
1 43689U 18087A   26016.59355496  .00000086  00000+0  59208-4 0  9996
2 43689  98.6876  78.8199 0000623 181.1520 178.9656 14.21498808373298
GEO-KOMPSAT-2A          
1 43823U 18100A   26016.90239280 -.00000327  00000+0  00000+0 0  9999
2 43823   0.0259 136.1349 0000811 276.0225 157.2882  1.00271427 26116
METEOR-M2 2             
1 44387U 19038A   26016.58056049  .00000099  00000+0  62520-4 0  9995
2 44387  98.9005   1.7428 0002303  88.9020 271.2422 14.24308158339715
ARKTIKA-M 1             
1 47719U 21016A   26015.96690329 -.00000173  00000+0  00000+0 0  9996
2 47719  63.1870  79.2821 7221281 269.2586  15.3898  2.00632290 35731
FENGYUN 3E              
1 49008U 21062A   26016.55599566  .00000255  00000+0  14071-3 0  9994
2 49008  98.7485  21.6664 0002094 134.5344 225.6004 14.19886148235063
GOES 18                 
1 51850U 22021A   26016.55826083  .00000000  00000+0  00000+0 0  9996
2 51850   0.0130  75.5771 0000837 289.2178 175.1702  1.00271775  5077
NOAA 21 (JPSS-2)        
1 54234U 22150A   26016.56338662  .00000024  00000+0  32257-4 0  9990
2 54234  98.7500 317.4442 0000622 279.9774  80.1332 14.19534942165033
METEOSAT-12 (MTG-I1)    
1 54743U 22170C   26016.58532731  .00000011  00000+0  00000+0 0  9994
2 54743   0.7284  29.4468 0001442 261.2925  35.7707  1.00275314 11450
TIANMU-1 03             
1 55973U 23039A   26016.61524690  .00012762  00000+0  30040-3 0  9991
2 55973  97.5114 185.2738 0002513 296.0956  64.0032 15.42095069157436
TIANMU-1 04             
1 55974U 23039B   26016.65172856  .00012354  00000+0  28739-3 0  9998
2 55974  97.5045 184.4887 0003196 287.8587  72.2311 15.42454813157440
TIANMU-1 05             
1 55975U 23039C   26016.58996495  .00011740  00000+0  27697-3 0  9994
2 55975  97.5092 184.9184 0002593 324.8846  35.2230 15.42046042157415
TIANMU-1 06             
1 55976U 23039D   26016.65277411  .00012397  00000+0  28795-3 0  9992
2 55976  97.5102 185.4774 0002850 315.5289  44.5729 15.42501347157446
FENGYUN 3G              
1 56232U 23055A   26016.59277087  .00022400  00000+0  35105-3 0  9997
2 56232  49.9940  47.7154 0004206  34.9452 325.1791 15.53567667156441
METEOR-M2 3             
1 57166U 23091A   26016.61227904 -.00000003  00000+0  17639-4 0  9999
2 57166  98.6328  74.5339 0002991 243.3309 116.7564 14.24030641132943
TIANMU-1 07             
1 57399U 23101A   26016.62284286  .00005316  00000+0  19350-3 0  9998
2 57399  97.2831  70.7075 0002895 335.0831  25.0269 15.28635150138482
TIANMU-1 08             
1 57400U 23101B   26016.59092189  .00004721  00000+0  17270-3 0  9994
2 57400  97.2820  70.4664 0004644 327.9782  32.1175 15.28529653138477
TIANMU-1 09             
1 57401U 23101C   26016.57613331  .00005449  00000+0  19810-3 0  9991
2 57401  97.2778  69.9490 0004102 333.7760  26.3272 15.28662061138474
TIANMU-1 10             
1 57402U 23101D   26016.61050700  .00005418  00000+0  19700-3 0  9996
2 57402  97.2857  70.8693 0005793 329.0151  31.0746 15.28654696138472
FENGYUN 3F              
1 57490U 23111A   26016.61317715  .00000043  00000+0  40665-4 0  9990
2 57490  98.7031  89.3358 0001262 114.2174 245.9134 14.19903753127350
ARKTIKA-M 2             
1 58584U 23198A   26015.22704472  .00000176  00000+0  00000+0 0  9997
2 58584  63.2246 171.2444 6868648 267.9686  18.8382  2.00601453 15252
TIANMU-1 11             
1 58645U 23205A   26016.59280450  .00004511  00000+0  18305-3 0  9998
2 58645  97.3582  40.6104 0009392 169.2092 190.9349 15.25076672114407
TIANMU-1 12             
1 58646U 23205B   26016.55664769  .00004585  00000+0  18660-3 0  9999
2 58646  97.3572  40.3689 0008184 151.1116 209.0577 15.24973303114385
TIANMU-1 13             
1 58647U 23205C   26016.58919346  .00004716  00000+0  19157-3 0  9995
2 58647  97.3598  40.6169 0008895 135.2356 224.9601 15.25018796114389
TIANMU-1 14             
1 58648U 23205D   26016.57300825  .00004492  00000+0  18267-3 0  9993
2 58648  97.3532  39.9175 0009605 139.8396 220.3553 15.24998711114389
TIANMU-1 19             
1 58660U 23208A   26016.57873183  .00006913  00000+0  25123-3 0  9991
2 58660  97.4383 132.5647 0006191 127.3338 232.8466 15.28579631114142
TIANMU-1 20             
1 58661U 23208B   26016.60356941  .00007274  00000+0  25467-3 0  9996
2 58661  97.4322 133.0715 0008312 137.1091 223.0799 15.29772026114224
TIANMU-1 21             
1 58662U 23208C   26016.60946712  .00008924  00000+0  28738-3 0  9995
2 58662  97.4371 135.1457 0007819 132.2959 227.8946 15.32412885114331
TIANMU-1 22             
1 58663U 23208D   26016.58470755  .00006560  00000+0  24079-3 0  9990
2 58663  97.4377 132.6126 0004564 144.9044 215.2497 15.28281450114151
TIANMU-1 15             
1 58700U 24004A   26016.63567936  .00005106  00000+0  20776-3 0  9996
2 58700  97.4629 202.9843 0007590 153.7638 206.3985 15.24943021112661
TIANMU-1 16             
1 58701U 24004B   26016.62019301  .00005064  00000+0  20594-3 0  9995
2 58701  97.4571 202.3306 0005945 153.8865 206.2673 15.24970830112662
TIANMU-1 17             
1 58702U 24004C   26016.60381909  .00005070  00000+0  20600-3 0  9995
2 58702  97.4604 202.7422 0005126 153.1374 207.0130 15.25011354112656
TIANMU-1 18             
1 58703U 24004D   26016.58759741  .00005023  00000+0  20430-3 0  9995
2 58703  97.4620 202.9285 0004568 150.1118 210.0381 15.24983474112658
INSAT-3DS               
1 58990U 24033A   26016.60162074 -.00000139  00000+0  00000+0 0  9996
2 58990   0.0792 263.6382 0001582  67.4334  83.6320  1.00271950 45549
METEOR-M2 4             
1 59051U 24039A   26016.59540353  .00000004  00000+0  21269-4 0  9994
2 59051  98.6815 337.9666 0006025 245.7664 114.2884 14.22407426 97710
GOES 19                 
1 60133U 24119A   26016.49915381 -.00000231  00000+0  00000+0 0  9990
2 60133   0.0115 291.4490 0001294  56.5252 232.4564  1.00274556  5441
FENGYUN 3H              
1 65815U 25219A   26016.53938092  .00000030  00000+0  34453-4 0  9993
2 65815  98.6625 320.3815 0001350 103.7704 256.3623 14.19915427 15866
